TRANSPORTER-12 OBJECT BT
1 62674U 25009BT  26068.71416991  .00013824  00000+0  51029-3 0  9998
2 62674  97.4094 151.5992 0003682 313.5044  46.5889 15.27872239121360
STARLINK-35834          
1 66570U 25268P   26068.15997786  .00030789  00000+0  11226-2 0  9991
2 66570  42.9969 350.5009 0000279 237.3828 122.6996 15.27613968 17874
